{"fetched_at":"2026-03-29T16:36:15Z","count":15609,"tles":[{"name":"STARLINK-33569","line1":"1 62769U 25015M   26087.68962759  .00028584  00000+0  97316-3 0  9993","line2":"2 62769  53.1577 233.9528 0001157  87.6303 272.4830 15.30210893 67396","category":"Starlink"}]}